[{"OBJECT_NAME":"STARLINK-30416","OBJECT_ID":"2023-141H","EPOCH":"2026-03-09T20:46:43.750560","MEAN_MOTION":15.30199446,"ECCENTRICITY":6.974e-5,"INCLINATION":53.1589,"RA_OF_ASC_NODE":283.3602,"ARG_OF_PERICENTER":53.3687,"MEAN_ANOMALY":306.7378,"EPHEMERIS_TYPE":0,"CLASSIFICATION_TYPE":"U","NORAD_CAT_ID":57847,"ELEMENT_SET_NO":999,"REV_AT_EPOCH":14035,"BSTAR":0.00024997578,"MEAN_MOTION_DOT":7.052e-5,"MEAN_MOTION_DDOT":0},{"OBJECT_NAME":"TOMORROW-S1","OBJECT_ID":"2024-149M","EPOCH":"2026-03-09T17:23:34.533600","MEAN_MOTION":15.31198363,"ECCENTRICITY":0.00018188,"INCLINATION":97.3791,"RA_OF_ASC_NODE":149.6044,"ARG_OF_PERICENTER":207.204,"MEAN_ANOMALY":152.9106,"EPHEMERIS_TYPE":0,"CLASSIFICATION_TYPE":"U","NORAD_CAT_ID":60479,"ELEMENT_SET_NO":999,"REV_AT_EPOCH":8686,"BSTAR":0.0002885603,"MEAN_MOTION_DOT":8.62e-5,"MEAN_MOTION_DDOT":0}]
