STARLINK-30416          
1 57847U 23141H   26068.86578414  .00007052  00000+0  24998-3 0  9995
2 57847  53.1589 283.3602 0000697  53.3687 306.7378 15.30199446140351
TOMORROW-S1             
1 60479U 24149M   26068.72470524  .00008620  00000+0  28856-3 0  9996
2 60479  97.3791 149.6044 0001819 207.2040 152.9106 15.31198362 86867
